{
  "type": "FeatureCollection",
  "features": [
    {
      "type": "Feature",
      "properties": {
        "norad_id": 66620,
        "name": "STARLINK-35936",
        "group": "last-30-days",
        "lat": 36.893528240964294,
        "lon": -109.46625355033495,
        "alt_km": 342.65563098266284,
        "timestamp": "2025-12-06T18:50:08.956632+00:00",
        "meta_object_name": "STARLINK-35936",
        "meta_object_id": "2025-271D",
        "meta_epoch": "2025-12-06T06:00:02.000160",
        "meta_mean_motion": 15.74961168,
        "meta_eccentricity": 0.00011987,
        "meta_inclination": 53.1575,
        "meta_ra_of_asc_node": 218.9373,
        "meta_arg_of_pericenter": 82.1952,
        "meta_mean_anomaly": 173.6248,
        "meta_ephemeris_type": 0,
        "meta_classification_type": "U",
        "meta_norad_cat_id": 66620,
        "meta_element_set_no": 999,
        "meta_rev_at_epoch": 320,
        "meta_bstar": -0.0074926553,
        "meta_mean_motion_dot": -0.01024955,
        "meta_mean_motion_ddot": 0,
        "tle_line1": "1 66620U 25271D   25340.25002315 -.01024955  00000+0 -74927-2 0  9997",
        "tle_line2": "2 66620  53.1575 218.9373 0001198  82.1952 173.6248 15.74961168  3201"
      },
      "geometry": {
        "type": "Point",
        "coordinates": [
          -109.46625355033495,
          36.893528240964294
        ]
      }
    },
    {
      "type": "Feature",
      "properties": {
        "norad_id": 66621,
        "name": "STARLINK-35847",
        "group": "last-30-days",
        "lat": 50.99654391721635,
        "lon": -31.623117628149245,
        "alt_km": 339.5155159827782,
        "timestamp": "2025-12-06T18:50:08.956642+00:00",
        "meta_object_name": "STARLINK-35847",
        "meta_object_id": "2025-271E",
        "meta_epoch": "2025-12-06T06:00:02.000160",
        "meta_mean_motion": 15.74173375,
        "meta_eccentricity": 9.107e-05,
        "meta_inclination": 53.158,
        "meta_ra_of_asc_node": 218.8203,
        "meta_arg_of_pericenter": 79.7042,
        "meta_mean_anomaly": 231.5206,
        "meta_ephemeris_type": 0,
        "meta_classification_type": "U",
        "meta_norad_cat_id": 66621,
        "meta_element_set_no": 999,
        "meta_rev_at_epoch": 320,
        "meta_bstar": 7.6311791e-05,
        "meta_mean_motion_dot": 0.00010554,
        "meta_mean_motion_ddot": 0,
        "tle_line1": "1 66621U 25271E   25340.25002315  .00010554  00000+0  76312-4 0  9997",
        "tle_line2": "2 66621  53.1580 218.8203 0000910  79.7042 231.5206 15.74173375  3205"
      },
      "geometry": {
        "type": "Point",
        "coordinates": [
          -31.623117628149245,
          50.99654391721635
        ]
      }
    },
    {
      "type": "Feature",
      "properties": {
        "norad_id": 66622,
        "name": "STARLINK-35950",
        "group": "last-30-days",
        "lat": 41.752048482447606,
        "lon": -101.72298822114857,
        "alt_km": 341.25060540507,
        "timestamp": "2025-12-06T18:50:08.956652+00:00",
        "meta_object_name": "STARLINK-35950",
        "meta_object_id": "2025-271F",
        "meta_epoch": "2025-12-06T06:00:02.000160",
        "meta_mean_motion": 15.74548019,
        "meta_eccentricity": 0.0001388,
        "meta_inclination": 53.157,
        "meta_ra_of_asc_node": 218.9204,
        "meta_arg_of_pericenter": 76.8579,
        "meta_mean_anomaly": 186.904,
        "meta_ephemeris_type": 0,
        "meta_classification_type": "U",
        "meta_norad_cat_id": 66622,
        "meta_element_set_no": 999,
        "meta_rev_at_epoch": 320,
        "meta_bstar": -0.0038844062,
        "meta_mean_motion_dot": -0.00542812,
        "meta_mean_motion_ddot": 0,
        "tle_line1": "1 66622U 25271F   25340.25002315 -.00542812  00000+0 -38844-2 0  9993",
        "tle_line2": "2 66622  53.1570 218.9204 0001388  76.8579 186.9040 15.74548019  3200"
      },
      "geometry": {
        "type": "Point",
        "coordinates": [
          -101.72298822114857,
          41.752048482447606
        ]
      }
    },
    {
      "type": "Feature",
      "properties": {
        "norad_id": 66623,
        "name": "STARLINK-35920",
        "group": "last-30-days",
        "lat": 43.90734028110726,
        "lon": -97.54404556870917,
        "alt_km": 341.3271671575849,
        "timestamp": "2025-12-06T18:50:08.956681+00:00",
        "meta_object_name": "STARLINK-35920",
        "meta_object_id": "2025-271G",
        "meta_epoch": "2025-12-06T06:00:02.000160",
        "meta_mean_motion": 15.74442339,
        "meta_eccentricity": 0.00011144,
        "meta_inclination": 53.1572,
        "meta_ra_of_asc_node": 218.9123,
        "meta_arg_of_pericenter": 99.6513,
        "meta_mean_anomaly": 167.9956,
        "meta_ephemeris_type": 0,
        "meta_classification_type": "U",
        "meta_norad_cat_id": 66623,
        "meta_element_set_no": 999,
        "meta_rev_at_epoch": 320,
        "meta_bstar": -0.0034620091,
        "meta_mean_motion_dot": -0.00484869,
        "meta_mean_motion_ddot": 0,
        "tle_line1": "1 66623U 25271G   25340.25002315 -.00484869  00000+0 -34620-2 0  9999",
        "tle_line2": "2 66623  53.1572 218.9123 0001114  99.6513 167.9956 15.74442339  3204"
      },
      "geometry": {
        "type": "Point",
        "coordinates": [
          -97.54404556870917,
          43.90734028110726
        ]
      }
    },
    {
      "type": "Feature",
      "properties": {
        "norad_id": 66624,
        "name": "STARLINK-35927",
        "group": "last-30-days",
        "lat": 42.83420895042371,
        "lon": -99.6984532972153,
        "alt_km": 341.69494794443017,
        "timestamp": "2025-12-06T18:50:08.956693+00:00",
        "meta_object_name": "STARLINK-35927",
        "meta_object_id": "2025-271H",
        "meta_epoch": "2025-12-06T06:00:02.000160",
        "meta_mean_motion": 15.74494334,
        "meta_eccentricity": 7.111e-05,
        "meta_inclination": 53.1572,
        "meta_ra_of_asc_node": 218.9163,
        "meta_arg_of_pericenter": 85.1074,
        "meta_mean_anomaly": 180.5982,
        "meta_ephemeris_type": 0,
        "meta_classification_type": "U",
        "meta_norad_cat_id": 66624,
        "meta_element_set_no": 999,
        "meta_rev_at_epoch": 320,
        "meta_bstar": -0.0038566133,
        "meta_mean_motion_dot": -0.0053789,
        "meta_mean_motion_ddot": 0,
        "tle_line1": "1 66624U 25271H   25340.25002315 -.00537890  00000+0 -38566-2 0  9996",
        "tle_line2": "2 66624  53.1572 218.9163 0000711  85.1074 180.5982 15.74494334  3205"
      },
      "geometry": {
        "type": "Point",
        "coordinates": [
          -99.6984532972153,
          42.83420895042371
        ]
      }
    },
    {
      "type": "Feature",
      "properties": {
        "norad_id": 66625,
        "name": "STARLINK-35929",
        "group": "last-30-days",
        "lat": 45.01286828421249,
        "lon": -95.14390939385078,
        "alt_km": 340.6017587975057,
        "timestamp": "2025-12-06T18:50:08.956702+00:00",
        "meta_object_name": "STARLINK-35929",
        "meta_object_id": "2025-271J",
        "meta_epoch": "2025-12-06T06:00:02.000160",
        "meta_mean_motion": 15.74339965,
        "meta_eccentricity": 0.00010807,
        "meta_inclination": 53.1573,
        "meta_ra_of_asc_node": 218.9083,
        "meta_arg_of_pericenter": 82.4812,
        "meta_mean_anomaly": 187.1396,
        "meta_ephemeris_type": 0,
        "meta_classification_type": "U",
        "meta_norad_cat_id": 66625,
        "meta_element_set_no": 999,
        "meta_rev_at_epoch": 320,
        "meta_bstar": -0.0017581592,
        "meta_mean_motion_dot": -0.0025221,
        "meta_mean_motion_ddot": 0,
        "tle_line1": "1 66625U 25271J   25340.25002315 -.00252210  00000+0 -17582-2 0  9992",
        "tle_line2": "2 66625  53.1573 218.9083 0001080  82.4812 187.1396 15.74339965  3208"
      },
      "geometry": {
        "type": "Point",
        "coordinates": [
          -95.14390939385078,
          45.01286828421249
        ]
      }
    },
    {
      "type": "Feature",
      "properties": {
        "norad_id": 66626,
        "name": "STARLINK-35902",
        "group": "last-30-days",
        "lat": 46.01415275690867,
        "lon": -92.77914636192003,
        "alt_km": 340.1418349892647,
        "timestamp": "2025-12-06T18:50:08.956712+00:00",
        "meta_object_name": "STARLINK-35902",
        "meta_object_id": "2025-271K",
        "meta_epoch": "2025-12-06T06:00:02.000160",
        "meta_mean_motion": 15.74248328,
        "meta_eccentricity": 0.00012845,
        "meta_inclination": 53.157,
        "meta_ra_of_asc_node": 218.9037,
        "meta_arg_of_pericenter": 82.3176,
        "meta_mean_anomaly": 189.2668,
        "meta_ephemeris_type": 0,
        "meta_classification_type": "U",
        "meta_norad_cat_id": 66626,
        "meta_element_set_no": 999,
        "meta_rev_at_epoch": 320,
        "meta_bstar": -0.0007732556,
        "meta_mean_motion_dot": -0.00112664,
        "meta_mean_motion_ddot": 0,
        "tle_line1": "1 66626U 25271K   25340.25002315 -.00112664  00000+0 -77326-3 0  9994",
        "tle_line2": "2 66626  53.1570 218.9037 0001284  82.3176 189.2668 15.74248328  3200"
      },
      "geometry": {
        "type": "Point",
        "coordinates": [
          -92.77914636192003,
          46.01415275690867
        ]
      }
    }
  ]
}